STARLINK-31140          
1 58767U 24011C   26068.05531346  .00000797  00000+0  39028-4 0  9998
2 58767  53.1621  16.5875 0001079 106.5079 253.6041 15.30197835120174
TOMORROW-S1             
1 60479U 24149M   26068.72470524  .00008620  00000+0  28856-3 0  9996
2 60479  97.3791 149.6044 0001819 207.2040 152.9106 15.31198362 86867
